[{"OBJECT_NAME":"ONEWEB-0306","OBJECT_ID":"2021-083C","EPOCH":"2026-02-28T20:47:56.306688","MEAN_MOTION":13.18685422,"ECCENTRICITY":0.0001935,"INCLINATION":87.9245,"RA_OF_ASC_NODE":356.9504,"ARG_OF_PERICENTER":86.0013,"MEAN_ANOMALY":274.1341,"EPHEMERIS_TYPE":0,"CLASSIFICATION_TYPE":"U","NORAD_CAT_ID":49188,"ELEMENT_SET_NO":999,"REV_AT_EPOCH":21574,"BSTAR":-3.1914e-5,"MEAN_MOTION_DOT":0,"MEAN_MOTION_DDOT":0},{"OBJECT_NAME":"ONEWEB-0307","OBJECT_ID":"2021-083D","EPOCH":"2026-03-01T03:21:19.107936","MEAN_MOTION":13.13468526,"ECCENTRICITY":0.0001781,"INCLINATION":87.9029,"RA_OF_ASC_NODE":341.7269,"ARG_OF_PERICENTER":77.9451,"MEAN_ANOMALY":282.1878,"EPHEMERIS_TYPE":0,"CLASSIFICATION_TYPE":"U","NORAD_CAT_ID":49189,"ELEMENT_SET_NO":999,"REV_AT_EPOCH":21674,"BSTAR":0.00051679,"MEAN_MOTION_DOT":2.01e-6,"MEAN_MOTION_DDOT":0},{"OBJECT_NAME":"ONEWEB-0320","OBJECT_ID":"2021-083E","EPOCH":"2026-02-28T21:03:11.318112","MEAN_MOTION":13.18131264,"ECCENTRICITY":0.0001864,"INCLINATION":87.9235,"RA_OF_ASC_NODE":356.9733,"ARG_OF_PERICENTER":79.1216,"MEAN_ANOMALY":281.0126,"EPHEMERIS_TYPE":0,"CLASSIFICATION_TYPE":"U","NORAD_CAT_ID":49190,"ELEMENT_SET_NO":999,"REV_AT_EPOCH":21570,"BSTAR":4.2766e-5,"MEAN_MOTION_DOT":3.0e-7,"MEAN_MOTION_DDOT":0},{"OBJECT_NAME":"ONEWEB-0321","OBJECT_ID":"2021-083F","EPOCH":"2026-03-01T04:07:18.111360","MEAN_MOTION":13.20772533,"ECCENTRICITY":0.0001756,"INCLINATION":87.9186,"RA_OF_ASC_NODE":296.0012,"ARG_OF_PERICENTER":93.3275,"MEAN_ANOMALY":266.8059,"EPHEMERIS_TYPE":0,"CLASSIFICATION_TYPE":"U","NORAD_CAT_ID":49191,"ELEMENT_SET_NO":999,"REV_AT_EPOCH":22257,"BSTAR":0.000156,"MEAN_MOTION_DOT":7.6e-7,"MEAN_MOTION_DDOT":0},{"OBJECT_NAME":"ONEWEB-0322","OBJECT_ID":"2021-083G","EPOCH":"2026-03-01T03:15:13.126176","MEAN_MOTION":13.13469225,"ECCENTRICITY":0.0001678,"INCLINATION":87.9033,"RA_OF_ASC_NODE":341.7324,"ARG_OF_PERICENTER":94.8248,"MEAN_ANOMALY":265.3073,"EPHEMERIS_TYPE":0,"CLASSIFICATION_TYPE":"U","NORAD_CAT_ID":49192,"ELEMENT_SET_NO":999,"REV_AT_EPOCH":21673,"BSTAR":0.00014314,"MEAN_MOTION_DOT":6.5e-7,"MEAN_MOTION_DDOT":0},{"OBJECT_NAME":"ONEWEB-0324","OBJECT_ID":"2021-083H","EPOCH":"2026-02-28T20:38:26.421792","MEAN_MOTION":13.18685987,"ECCENTRICITY":0.00020183,"INCLINATION":87.9246,"RA_OF_ASC_NODE":356.9577,"ARG_OF_PERICENTER":79.1871,"MEAN_ANOMALY":280.9488,"EPHEMERIS_TYPE":0,"CLASSIFICATION_TYPE":"U","NORAD_CAT_ID":49193,"ELEMENT_SET_NO":999,"REV_AT_EPOCH":21572,"BSTAR":0.0001553226,"MEAN_MOTION_DOT":7.4e-7,"MEAN_MOTION_DDOT":0},{"OBJECT_NAME":"ONEWEB-0325","OBJECT_ID":"2021-083J","EPOCH":"2026-02-28T20:43:11.792352","MEAN_MOTION":13.18685022,"ECCENTRICITY":0.0001801,"INCLINATION":87.9235,"RA_OF_ASC_NODE":356.9748,"ARG_OF_PERICENTER":80.4395,"MEAN_ANOMALY":279.6941,"EPHEMERIS_TYPE":0,"CLASSIFICATION_TYPE":"U","NORAD_CAT_ID":49194,"ELEMENT_SET_NO":999,"REV_AT_EPOCH":21573,"BSTAR":-8.1467e-6,"MEAN_MOTION_DOT":1.0e-7,"MEAN_MOTION_DDOT":0},{"OBJECT_NAME":"ONEWEB-0326","OBJECT_ID":"2021-083K","EPOCH":"2026-02-28T21:04:45.805152","MEAN_MOTION":13.18685984,"ECCENTRICITY":0.0001718,"INCLINATION":87.9247,"RA_OF_ASC_NODE":356.9605,"ARG_OF_PERICENTER":70.1156,"MEAN_ANOMALY":290.0161,"EPHEMERIS_TYPE":0,"CLASSIFICATION_TYPE":"U","NORAD_CAT_ID":49195,"ELEMENT_SET_NO":999,"REV_AT_EPOCH":21572,"BSTAR":3.5671e-6,"MEAN_MOTION_DOT":1.4e-7,"MEAN_MOTION_DDOT":0},{"OBJECT_NAME":"ONEWEB-0327","OBJECT_ID":"2021-083L","EPOCH":"2026-02-28T21:04:22.378656","MEAN_MOTION":13.18685454,"ECCENTRICITY":0.0001585,"INCLINATION":87.9237,"RA_OF_ASC_NODE":356.9738,"ARG_OF_PERICENTER":70.6791,"MEAN_ANOMALY":289.4512,"EPHEMERIS_TYPE":0,"CLASSIFICATION_TYPE":"U","NORAD_CAT_ID":49196,"ELEMENT_SET_NO":999,"REV_AT_EPOCH":21574,"BSTAR":-5.6852e-5,"MEAN_MOTION_DOT":-1.0e-7,"MEAN_MOTION_DDOT":0},{"OBJECT_NAME":"ONEWEB-0328","OBJECT_ID":"2021-083M","EPOCH":"2026-02-28T19:41:48.521472","MEAN_MOTION":13.13469875,"ECCENTRICITY":0.00019296,"INCLINATION":87.9046,"RA_OF_ASC_NODE":341.7535,"ARG_OF_PERICENTER":77.7262,"MEAN_ANOMALY":282.4083,"EPHEMERIS_TYPE":0,"CLASSIFICATION_TYPE":"U","NORAD_CAT_ID":49197,"ELEMENT_SET_NO":999,"REV_AT_EPOCH":21667,"BSTAR":-0.00036349871,"MEAN_MOTION_DOT":-1.2e-6,"MEAN_MOTION_DDOT":0},{"OBJECT_NAME":"ONEWEB-0331","OBJECT_ID":"2021-083N","EPOCH":"2026-02-28T20:55:04.287360","MEAN_MOTION":13.18685459,"ECCENTRICITY":0.0001923,"INCLINATION":87.9246,"RA_OF_ASC_NODE":356.9551,"ARG_OF_PERICENTER":69.3161,"MEAN_ANOMALY":290.8177,"EPHEMERIS_TYPE":0,"CLASSIFICATION_TYPE":"U","NORAD_CAT_ID":49198,"ELEMENT_SET_NO":999,"REV_AT_EPOCH":21573,"BSTAR":3.3618e-5,"MEAN_MOTION_DOT":2.6e-7,"MEAN_MOTION_DDOT":0},{"OBJECT_NAME":"ONEWEB-0333","OBJECT_ID":"2021-083P","EPOCH":"2026-02-28T19:34:29.570592","MEAN_MOTION":13.13469587,"ECCENTRICITY":0.0001722,"INCLINATION":87.9029,"RA_OF_ASC_NODE":341.7943,"ARG_OF_PERICENTER":77.8656,"MEAN_ANOMALY":282.2666,"EPHEMERIS_TYPE":0,"CLASSIFICATION_TYPE":"U","NORAD_CAT_ID":49199,"ELEMENT_SET_NO":999,"REV_AT_EPOCH":21668,"BSTAR":-0.00079360252,"MEAN_MOTION_DOT":-2.77e-6,"MEAN_MOTION_DDOT":0},{"OBJECT_NAME":"ONEWEB-0334","OBJECT_ID":"2021-083Q","EPOCH":"2026-03-01T02:43:13.476288","MEAN_MOTION":13.2077166,"ECCENTRICITY":0.0001683,"INCLINATION":87.9173,"RA_OF_ASC_NODE":296.0322,"ARG_OF_PERICENTER":117.6729,"MEAN_ANOMALY":242.4576,"EPHEMERIS_TYPE":0,"CLASSIFICATION_TYPE":"U","NORAD_CAT_ID":49200,"ELEMENT_SET_NO":999,"REV_AT_EPOCH":22252,"BSTAR":9.7623e-5,"MEAN_MOTION_DOT":5.3e-7,"MEAN_MOTION_DDOT":0},{"OBJECT_NAME":"ONEWEB-0335","OBJECT_ID":"2021-083R","EPOCH":"2026-02-28T17:37:28.488000","MEAN_MOTION":13.13468147,"ECCENTRICITY":0.00017969,"INCLINATION":87.9036,"RA_OF_ASC_NODE":341.8035,"ARG_OF_PERICENTER":72.0451,"MEAN_ANOMALY":288.0874,"EPHEMERIS_TYPE":0,"CLASSIFICATION_TYPE":"U","NORAD_CAT_ID":49201,"ELEMENT_SET_NO":999,"REV_AT_EPOCH":21668,"BSTAR":-0.00078475801,"MEAN_MOTION_DOT":-2.74e-6,"MEAN_MOTION_DDOT":0},{"OBJECT_NAME":"ONEWEB-0336","OBJECT_ID":"2021-083S","EPOCH":"2026-02-28T20:35:26.028096","MEAN_MOTION":13.13468052,"ECCENTRICITY":0.00019595,"INCLINATION":87.9037,"RA_OF_ASC_NODE":341.7758,"ARG_OF_PERICENTER":65.7227,"MEAN_ANOMALY":294.4107,"EPHEMERIS_TYPE":0,"CLASSIFICATION_TYPE":"U","NORAD_CAT_ID":49202,"ELEMENT_SET_NO":999,"REV_AT_EPOCH":21669,"BSTAR":0.00035119364,"MEAN_MOTION_DOT":1.41e-6,"MEAN_MOTION_DDOT":0},{"OBJECT_NAME":"ONEWEB-0337","OBJECT_ID":"2021-083T","EPOCH":"2026-03-01T04:08:39.404256","MEAN_MOTION":13.13468445,"ECCENTRICITY":0.0001945,"INCLINATION":87.9031,"RA_OF_ASC_NODE":341.7233,"ARG_OF_PERICENTER":74.8078,"MEAN_ANOMALY":285.3266,"EPHEMERIS_TYPE":0,"CLASSIFICATION_TYPE":"U","NORAD_CAT_ID":49203,"ELEMENT_SET_NO":999,"REV_AT_EPOCH":21673,"BSTAR":-0.00010222,"MEAN_MOTION_DOT":-2.5e-7,"MEAN_MOTION_DDOT":0},{"OBJECT_NAME":"ONEWEB-0338","OBJECT_ID":"2021-083U","EPOCH":"2026-03-01T03:55:55.819200","MEAN_MOTION":13.20771346,"ECCENTRICITY":0.0001623,"INCLINATION":87.9177,"RA_OF_ASC_NODE":296.0264,"ARG_OF_PERICENTER":95.8183,"MEAN_ANOMALY":264.3136,"EPHEMERIS_TYPE":0,"CLASSIFICATION_TYPE":"U","NORAD_CAT_ID":49204,"ELEMENT_SET_NO":999,"REV_AT_EPOCH":22255,"BSTAR":-0.00078699,"MEAN_MOTION_DOT":-3.07e-6,"MEAN_MOTION_DDOT":0},{"OBJECT_NAME":"ONEWEB-0339","OBJECT_ID":"2021-083V","EPOCH":"2026-02-28T17:22:51.761280","MEAN_MOTION":13.13468747,"ECCENTRICITY":0.0001869,"INCLINATION":87.9041,"RA_OF_ASC_NODE":341.7991,"ARG_OF_PERICENTER":87.4335,"MEAN_ANOMALY":272.7008,"EPHEMERIS_TYPE":0,"CLASSIFICATION_TYPE":"U","NORAD_CAT_ID":49205,"ELEMENT_SET_NO":999,"REV_AT_EPOCH":21665,"BSTAR":-0.00077157892,"MEAN_MOTION_DOT":-2.69e-6,"MEAN_MOTION_DDOT":0},{"OBJECT_NAME":"ONEWEB-0340","OBJECT_ID":"2021-083W","EPOCH":"2026-02-28T20:36:03.841920","MEAN_MOTION":13.18685789,"ECCENTRICITY":0.00018451,"INCLINATION":87.9248,"RA_OF_ASC_NODE":356.9633,"ARG_OF_PERICENTER":76.3523,"MEAN_ANOMALY":283.7815,"EPHEMERIS_TYPE":0,"CLASSIFICATION_TYPE":"U","NORAD_CAT_ID":49206,"ELEMENT_SET_NO":999,"REV_AT_EPOCH":21569,"BSTAR":7.786292e-5,"MEAN_MOTION_DOT":4.4e-7,"MEAN_MOTION_DDOT":0},{"OBJECT_NAME":"ONEWEB-0341","OBJECT_ID":"2021-083X","EPOCH":"2026-02-28T20:45:34.260768","MEAN_MOTION":13.18685697,"ECCENTRICITY":0.0002363,"INCLINATION":87.9243,"RA_OF_ASC_NODE":356.9719,"ARG_OF_PERICENTER":78.4212,"MEAN_ANOMALY":281.7185,"EPHEMERIS_TYPE":0,"CLASSIFICATION_TYPE":"U","NORAD_CAT_ID":49207,"ELEMENT_SET_NO":999,"REV_AT_EPOCH":21571,"BSTAR":5.3598e-5,"MEAN_MOTION_DOT":3.4e-7,"MEAN_MOTION_DDOT":0},{"OBJECT_NAME":"ONEWEB-0342","OBJECT_ID":"2021-083Y","EPOCH":"2026-03-01T04:05:01.925952","MEAN_MOTION":13.20772719,"ECCENTRICITY":0.0001636,"INCLINATION":87.9185,"RA_OF_ASC_NODE":296.0025,"ARG_OF_PERICENTER":87.5229,"MEAN_ANOMALY":272.6092,"EPHEMERIS_TYPE":0,"CLASSIFICATION_TYPE":"U","NORAD_CAT_ID":49208,"ELEMENT_SET_NO":999,"REV_AT_EPOCH":22252,"BSTAR":0.00011956,"MEAN_MOTION_DOT":6.2e-7,"MEAN_MOTION_DDOT":0},{"OBJECT_NAME":"ONEWEB-0343","OBJECT_ID":"2021-083Z","EPOCH":"2026-02-28T20:57:26.259840","MEAN_MOTION":13.1868575,"ECCENTRICITY":0.0002319,"INCLINATION":87.9245,"RA_OF_ASC_NODE":356.9643,"ARG_OF_PERICENTER":86.8357,"MEAN_ANOMALY":273.3041,"EPHEMERIS_TYPE":0,"CLASSIFICATION_TYPE":"U","NORAD_CAT_ID":49209,"ELEMENT_SET_NO":999,"REV_AT_EPOCH":21576,"BSTAR":1.941e-5,"MEAN_MOTION_DOT":2.1e-7,"MEAN_MOTION_DDOT":0},{"OBJECT_NAME":"ONEWEB-0344","OBJECT_ID":"2021-083AA","EPOCH":"2026-03-01T04:13:43.538304","MEAN_MOTION":13.13469237,"ECCENTRICITY":0.0002138,"INCLINATION":87.9031,"RA_OF_ASC_NODE":341.734,"ARG_OF_PERICENTER":76.337,"MEAN_ANOMALY":283.7997,"EPHEMERIS_TYPE":0,"CLASSIFICATION_TYPE":"U","NORAD_CAT_ID":49210,"ELEMENT_SET_NO":999,"REV_AT_EPOCH":21671,"BSTAR":-0.00022395,"MEAN_MOTION_DOT":-6.9e-7,"MEAN_MOTION_DDOT":0},{"OBJECT_NAME":"ONEWEB-0345","OBJECT_ID":"2021-083AB","EPOCH":"2026-03-01T04:01:31.559232","MEAN_MOTION":13.1347152,"ECCENTRICITY":0.000213,"INCLINATION":87.9041,"RA_OF_ASC_NODE":341.7022,"ARG_OF_PERICENTER":77.5774,"MEAN_ANOMALY":282.5594,"EPHEMERIS_TYPE":0,"CLASSIFICATION_TYPE":"U","NORAD_CAT_ID":49211,"ELEMENT_SET_NO":999,"REV_AT_EPOCH":21672,"BSTAR":0.00023166,"MEAN_MOTION_DOT":9.7e-7,"MEAN_MOTION_DDOT":0}]
